#aV2014 10 18  0  0  0.00000000     288 DD+AD WGS84 FIT  NGA
## 1814 518400.00000000   300.00000000 56948 0.0000000000000
+   31     1  2  4  5  6  7  8  9 10 11 12 13 14 15 16 17 18
+         19 20 21 22 23 24 25 26 27 28 29 30 31 32  0  0  0
+          0  0  0  0  0  0  0  0  0  0  0  0  0  0  0  0  0
+          0  0  0  0  0  0  0  0  0  0  0  0  0  0  0  0  0
+          0  0  0  0  0  0  0  0  0  0  0  0  0  0  0  0  0
++         2  2  2  2  2  2  2  2  2  2  2  2  2  2  2  2  2
++         2  2  2  2  2  2  2  2  2  2  2  2  2  2  0  0  0
++         0  0  0  0  0  0  0  0  0  0  0  0  0  0  0  0  0
++         0  0  0  0  0  0  0  0  0  0  0  0  0  0  0  0  0
++         0  0  0  0  0  0  0  0  0  0  0  0  0  0  0  0  0
%c cc cc ccc ccc cccc cccc cccc cccc ccccc ccccc ccccc ccccc
%c cc cc ccc ccc cccc cccc cccc cccc ccccc ccccc ccccc ccccc
%f  0.0000000  0.000000000  0.00000000000  0.000000000000000
%f  0.0000000  0.000000000  0.00000000000  0.000000000000000
%i    0    0    0    0      0      0      0      0         0
%i    0    0    0    0      0      0      0      0         0
/*      NGA, ST. LOUIS,MO.                                  
/*   EPHEMERIS COMPUTED FROM  1 DAYS OF DATA                
/*   EPOCHA SMOOTHER                                       
/* CCCCCCCCCCCCCCCCCCCCCCCCCCCCCCCCCCCCCCCCCCCCCCCCCCCCCCCCC
*  2014 10 18 16 30  0.00000000
P  1  21672.670057  11299.329587  10538.807866     22.630989                    
V  1   7801.041321  11148.520280 -27709.394195      0.004421                    
P  2 -11092.851049 -21757.794371  11322.343401    524.910148                    
V  2  11776.450104   7587.972295  26389.786258      0.022186                    
P  4  21866.873053  12319.975143   8687.758188     -1.733544                    
V  4   6071.180689  10200.938839 -28421.360437     -0.004941                    
P  5  -3888.755942 -22709.802689 -13103.534222   -328.060356                    
V  5   6756.860409 -15468.982626  25064.001069      0.041387                    
P  6   1216.252292 -17948.627763  19528.393354      0.758976                    
V  6  18555.599132  16540.569080  14020.433767      0.031056                    
P  7  18236.732751    -63.623519 -19341.292077    403.566413                    
V  7  16336.206092  18436.228657  14918.908032      0.039746                    
P  8  20052.670222  12289.375597 -12717.262523     15.965969                    
V  8   9162.982932  13399.454758  26358.740218      0.002495                    
P  9  25590.692814  -7143.647743    -88.866329      8.684943                    
V  9    875.292771   2724.084985  31709.831666     -0.052501                    
P 10   8535.529765 -24760.903002   2296.914464   -146.135371                    
V 10   2757.413231   4276.222761  31433.525749     -0.014248                    
P 11  23833.748838  11927.167799   -402.709578   -529.676706                    
V 11  -2040.579944   4375.910354 -30027.178686     -0.029641                    
P 12 -11931.101723  -9625.273939  21641.063292    239.782785                    
V 12   8432.568257 -26231.825055  -6787.494946      0.026964                    
P 13  22552.850171 -10377.734740  -9892.716848    -52.212957                    
V 13  12392.724761    -57.514136  28577.580761     -0.035907                    
P 14 -15964.250731  14222.219270  15896.859631    124.217557                    
V 14 -19781.335429   1995.029052 -22119.201988     -0.036386                    
P 15 -20772.598227  -5636.563342 -15822.495296   -209.362461                    
V 15  18312.343734  -8170.197053 -20906.186869     -0.022223                    
P 16   2040.515446  22532.960993 -13667.436896   -187.231355                    
V 16  -7065.361880  15942.034715  25677.508386      0.026800                    
P 17  16472.670706 -14400.192939  15160.741242   -131.584058                    
V 17  18805.886126  -2317.457821 -23265.132649     -0.025455                    
P 18 -15477.900120  14507.344566 -15323.425437    352.211011                    
V 18   2021.758507 -20647.676538 -21274.059352      0.025337                    
P 19  16791.811438   9940.213581 -18386.086016   -484.054932                    
V 19 -22287.773925   5061.448309 -17342.245174     -0.017845                    
P 20  15696.757627   2262.644876  21108.256445    246.623406                    
V 20  -5043.142107  26933.604236    925.574920      0.042815                    
P 21 -15281.542547   6113.022932 -20263.902130   -390.050011                    
V 21 -18984.359485 -19573.776504   7734.329147     -0.020307                    
P 22  -9820.871357  24048.150686  -4890.202227    278.252451                    
V 22  -2340.781475  -7326.500142 -30172.466620      0.036960                    
P 23  24920.271155    698.691580   9884.922952    -60.733189                    
V 23 -11211.271887   5503.353514  27821.646031     -0.028365                    
P 24 -21605.234177 -13742.801724   7255.450745    -37.023414                    
V 24  -4726.599030  -8367.936196 -29746.644665     -0.006108                    
P 25 -15731.408558   5013.596028  20695.408394     17.924466                    
V 25   5859.125663 -25798.565128  10793.505836     -0.014072                    
P 26  -8647.011255 -13593.279496 -21821.684548    -92.724202                    
V 26  25661.342404  -4686.818433  -7205.401892     -0.128099                    
P 27   5682.627174  14102.800027 -21796.255425     23.167432                    
V 27 -26584.861665   7500.072923  -2011.216036      0.028972                    
P 28  12911.727540 -21363.382389  -8269.186295    392.142065                    
V 28  -1673.440593  11426.339751 -30053.893026      0.027107                    
P 29 -26078.929602   4749.520812   1319.861706    567.504259                    
V 29   1067.376969  -2828.232993  31938.350989      0.024216                    
P 30  10803.463846 -10843.331952 -21702.707002    -73.474034                    
V 30  18148.747344  20759.566508  -1387.150171     -0.033683                    
P 31    158.910174  18697.283658  18886.958668    330.364235                    
V 31 -17288.402659 -16315.829422  16737.642204     -0.005429                    
P 32   7977.865165  17471.280628  18589.933422   -314.722949                    
V 32  -9090.261756  21616.312056 -15889.217237      0.087510                    
EOF
